[{"OBJECT_NAME":"STARLINK-36095","OBJECT_ID":"2025-281Z","EPOCH":"2026-01-15T22:03:37.304064","MEAN_MOTION":15.27588538,"ECCENTRICITY":0.00016309,"INCLINATION":42.9996,"RA_OF_ASC_NODE":281.6089,"ARG_OF_PERICENTER":251.9853,"MEAN_ANOMALY":108.0821,"EPHEMERIS_TYPE":0,"CLASSIFICATION_TYPE":"U","NORAD_CAT_ID":66871,"ELEMENT_SET_NO":999,"REV_AT_EPOCH":809,"BSTAR":0.00040066571,"MEAN_MOTION_DOT":0.00010782,"MEAN_MOTION_DDOT":0},{"OBJECT_NAME":"STARLINK-36082","OBJECT_ID":"2025-281AA","EPOCH":"2026-01-15T18:49:45.635808","MEAN_MOTION":15.2759938,"ECCENTRICITY":3.799e-5,"INCLINATION":42.9919,"RA_OF_ASC_NODE":282.3167,"ARG_OF_PERICENTER":132.7045,"MEAN_ANOMALY":227.3838,"EPHEMERIS_TYPE":0,"CLASSIFICATION_TYPE":"U","NORAD_CAT_ID":66872,"ELEMENT_SET_NO":999,"REV_AT_EPOCH":808,"BSTAR":0.00040100218,"MEAN_MOTION_DOT":0.00010796,"MEAN_MOTION_DDOT":0},{"OBJECT_NAME":"STARLINK-36128","OBJECT_ID":"2025-281AB","EPOCH":"2026-01-15T18:34:59.532096","MEAN_MOTION":15.27553346,"ECCENTRICITY":5.733e-5,"INCLINATION":42.9985,"RA_OF_ASC_NODE":282.2345,"ARG_OF_PERICENTER":338.0418,"MEAN_ANOMALY":22.0408,"EPHEMERIS_TYPE":0,"CLASSIFICATION_TYPE":"U","NORAD_CAT_ID":66873,"ELEMENT_SET_NO":999,"REV_AT_EPOCH":803,"BSTAR":0.00029435762,"MEAN_MOTION_DOT":7.84e-5,"MEAN_MOTION_DDOT":0},{"OBJECT_NAME":"STARLINK-36129","OBJECT_ID":"2025-281AC","EPOCH":"2026-01-15T18:44:12.388416","MEAN_MOTION":15.27599734,"ECCENTRICITY":6.014e-5,"INCLINATION":42.9979,"RA_OF_ASC_NODE":282.2835,"ARG_OF_PERICENTER":264.7378,"MEAN_ANOMALY":95.3405,"EPHEMERIS_TYPE":0,"CLASSIFICATION_TYPE":"U","NORAD_CAT_ID":66874,"ELEMENT_SET_NO":999,"REV_AT_EPOCH":808,"BSTAR":0.00053947448,"MEAN_MOTION_DOT":0.00014622,"MEAN_MOTION_DDOT":0},{"OBJECT_NAME":"STARLINK-36053","OBJECT_ID":"2025-281AD","EPOCH":"2026-01-15T02:47:50.491104","MEAN_MOTION":15.27587951,"ECCENTRICITY":0.00014386,"INCLINATION":42.9991,"RA_OF_ASC_NODE":285.8972,"ARG_OF_PERICENTER":269.6885,"MEAN_ANOMALY":90.3802,"EPHEMERIS_TYPE":0,"CLASSIFICATION_TYPE":"U","NORAD_CAT_ID":66875,"ELEMENT_SET_NO":999,"REV_AT_EPOCH":793,"BSTAR":0.00055394716,"MEAN_MOTION_DOT":0.00015016,"MEAN_MOTION_DDOT":0},{"OBJECT_NAME":"STARLINK-35702","OBJECT_ID":"2025-281AE","EPOCH":"2026-01-15T18:38:39.844320","MEAN_MOTION":15.27608484,"ECCENTRICITY":0.00015122,"INCLINATION":42.9981,"RA_OF_ASC_NODE":282.2558,"ARG_OF_PERICENTER":255.3828,"MEAN_ANOMALY":104.6856,"EPHEMERIS_TYPE":0,"CLASSIFICATION_TYPE":"U","NORAD_CAT_ID":66876,"ELEMENT_SET_NO":999,"REV_AT_EPOCH":808,"BSTAR":0.00058257883,"MEAN_MOTION_DOT":0.00015818,"MEAN_MOTION_DDOT":0},{"OBJECT_NAME":"STARLINK-35866","OBJECT_ID":"2025-283A","EPOCH":"2026-01-15T23:13:40.242432","MEAN_MOTION":15.30195175,"ECCENTRICITY":0.00017087,"INCLINATION":53.1602,"RA_OF_ASC_NODE":268.9595,"ARG_OF_PERICENTER":27.2892,"MEAN_ANOMALY":332.8198,"EPHEMERIS_TYPE":0,"CLASSIFICATION_TYPE":"U","NORAD_CAT_ID":66878,"ELEMENT_SET_NO":999,"REV_AT_EPOCH":777,"BSTAR":0.00017339322,"MEAN_MOTION_DOT":4.779e-5,"MEAN_MOTION_DDOT":0},{"OBJECT_NAME":"STARLINK-35749","OBJECT_ID":"2025-283B","EPOCH":"2026-01-15T16:40:44.046336","MEAN_MOTION":15.30186043,"ECCENTRICITY":0.0001161,"INCLINATION":53.1614,"RA_OF_ASC_NODE":270.0915,"ARG_OF_PERICENTER":76.715,"MEAN_ANOMALY":283.3981,"EPHEMERIS_TYPE":0,"CLASSIFICATION_TYPE":"U","NORAD_CAT_ID":66879,"ELEMENT_SET_NO":999,"REV_AT_EPOCH":773,"BSTAR":0.00054802853,"MEAN_MOTION_DOT":0.000159,"MEAN_MOTION_DDOT":0},{"OBJECT_NAME":"STARLINK-35844","OBJECT_ID":"2025-283C","EPOCH":"2026-01-15T16:48:20.230560","MEAN_MOTION":15.30181476,"ECCENTRICITY":0.00018243,"INCLINATION":53.1598,"RA_OF_ASC_NODE":270.1244,"ARG_OF_PERICENTER":90.1232,"MEAN_ANOMALY":269.9978,"EPHEMERIS_TYPE":0,"CLASSIFICATION_TYPE":"U","NORAD_CAT_ID":66880,"ELEMENT_SET_NO":999,"REV_AT_EPOCH":773,"BSTAR":0.00046405007,"MEAN_MOTION_DOT":0.00013402,"MEAN_MOTION_DDOT":0},{"OBJECT_NAME":"STARLINK-35860","OBJECT_ID":"2025-283D","EPOCH":"2026-01-15T16:31:37.460064","MEAN_MOTION":15.30212075,"ECCENTRICITY":0.00018346,"INCLINATION":53.1616,"RA_OF_ASC_NODE":270.0516,"ARG_OF_PERICENTER":90.0721,"MEAN_ANOMALY":270.049,"EPHEMERIS_TYPE":0,"CLASSIFICATION_TYPE":"U","NORAD_CAT_ID":66881,"ELEMENT_SET_NO":999,"REV_AT_EPOCH":773,"BSTAR":0.00072591424,"MEAN_MOTION_DOT":0.0002121,"MEAN_MOTION_DDOT":0},{"OBJECT_NAME":"STARLINK-35912","OBJECT_ID":"2025-283E","EPOCH":"2026-01-15T02:10:06.646944","MEAN_MOTION":15.30206421,"ECCENTRICITY":0.00013766,"INCLINATION":53.1602,"RA_OF_ASC_NODE":273.4306,"ARG_OF_PERICENTER":104.4554,"MEAN_ANOMALY":255.6599,"EPHEMERIS_TYPE":0,"CLASSIFICATION_TYPE":"U","NORAD_CAT_ID":66882,"ELEMENT_SET_NO":999,"REV_AT_EPOCH":763,"BSTAR":0.00016282092,"MEAN_MOTION_DOT":4.467e-5,"MEAN_MOTION_DDOT":0},{"OBJECT_NAME":"STARLINK-35947","OBJECT_ID":"2025-283F","EPOCH":"2026-01-15T19:21:39.216096","MEAN_MOTION":15.30440647,"ECCENTRICITY":0.00059419,"INCLINATION":53.1586,"RA_OF_ASC_NODE":270.0781,"ARG_OF_PERICENTER":24.1726,"MEAN_ANOMALY":335.9553,"EPHEMERIS_TYPE":0,"CLASSIFICATION_TYPE":"U","NORAD_CAT_ID":66883,"ELEMENT_SET_NO":999,"REV_AT_EPOCH":776,"BSTAR":-0.0054522083,"MEAN_MOTION_DOT":-0.00159734,"MEAN_MOTION_DDOT":0},{"OBJECT_NAME":"STARLINK-36057","OBJECT_ID":"2025-283G","EPOCH":"2026-01-15T17:38:29.013792","MEAN_MOTION":15.30207531,"ECCENTRICITY":0.00017189,"INCLINATION":53.1588,"RA_OF_ASC_NODE":270.3416,"ARG_OF_PERICENTER":101.9804,"MEAN_ANOMALY":258.139,"EPHEMERIS_TYPE":0,"CLASSIFICATION_TYPE":"U","NORAD_CAT_ID":66884,"ELEMENT_SET_NO":999,"REV_AT_EPOCH":773,"BSTAR":0.00042771845,"MEAN_MOTION_DOT":0.00012333,"MEAN_MOTION_DDOT":0},{"OBJECT_NAME":"STARLINK-35954","OBJECT_ID":"2025-283H","EPOCH":"2026-01-15T03:36:33.957792","MEAN_MOTION":15.30212508,"ECCENTRICITY":0.00011091,"INCLINATION":53.1575,"RA_OF_ASC_NODE":273.0962,"ARG_OF_PERICENTER":82.2662,"MEAN_ANOMALY":277.8465,"EPHEMERIS_TYPE":0,"CLASSIFICATION_TYPE":"U","NORAD_CAT_ID":66885,"ELEMENT_SET_NO":999,"REV_AT_EPOCH":764,"BSTAR":0.00023271235,"MEAN_MOTION_DOT":6.542e-5,"MEAN_MOTION_DDOT":0},{"OBJECT_NAME":"STARLINK-35900","OBJECT_ID":"2025-283J","EPOCH":"2026-01-15T03:21:22.455072","MEAN_MOTION":15.3020595,"ECCENTRICITY":0.00017813,"INCLINATION":53.1584,"RA_OF_ASC_NODE":273.0273,"ARG_OF_PERICENTER":46.3463,"MEAN_ANOMALY":313.7685,"EPHEMERIS_TYPE":0,"CLASSIFICATION_TYPE":"U","NORAD_CAT_ID":66886,"ELEMENT_SET_NO":999,"REV_AT_EPOCH":764,"BSTAR":0.0005966477,"MEAN_MOTION_DOT":0.00017356,"MEAN_MOTION_DDOT":0},{"OBJECT_NAME":"STARLINK-35925","OBJECT_ID":"2025-283K","EPOCH":"2026-01-15T23:39:29.813472","MEAN_MOTION":15.30209955,"ECCENTRICITY":9.13e-5,"INCLINATION":53.1579,"RA_OF_ASC_NODE":269.0632,"ARG_OF_PERICENTER":106.1773,"MEAN_ANOMALY":253.9328,"EPHEMERIS_TYPE":0,"CLASSIFICATION_TYPE":"U","NORAD_CAT_ID":66887,"ELEMENT_SET_NO":999,"REV_AT_EPOCH":777,"BSTAR":0.00035555409,"MEAN_MOTION_DOT":0.00010189,"MEAN_MOTION_DDOT":0}]
