STARLINK-36095          
1 66871U 25281Z   26015.91918176  .00010782  00000+0  40067-3 0  9999
2 66871  42.9996 281.6089 0001630 251.9853 108.0821 15.27588538  8095
STARLINK-36082          
1 66872U 25281AA  26015.78455597  .00010796  00000+0  40100-3 0  9991
2 66872  42.9919 282.3167 0000379 132.7045 227.3838 15.27599380  8083
STARLINK-36128          
1 66873U 25281AB  26015.77430014  .00007840  00000+0  29436-3 0  9993
2 66873  42.9985 282.2345 0000573 338.0418  22.0408 15.27553346  8035
STARLINK-36129          
1 66874U 25281AC  26015.78069894  .00014622  00000+0  53947-3 0  9999
2 66874  42.9979 282.2835 0000601 264.7378  95.3405 15.27599734  8081
STARLINK-36053          
1 66875U 25281AD  26015.11655661  .00015016  00000+0  55395-3 0  9997
2 66875  42.9991 285.8972 0001438 269.6885  90.3802 15.27587951  7930
STARLINK-35702          
1 66876U 25281AE  26015.77685005  .00015818  00000+0  58258-3 0  9996
2 66876  42.9981 282.2558 0001512 255.3828 104.6856 15.27608484  8083
STARLINK-35866          
1 66878U 25283A   26015.96782688  .00004779  00000+0  17339-3 0  9995
2 66878  53.1602 268.9595 0001708  27.2892 332.8198 15.30195175  7776
STARLINK-35749          
1 66879U 25283B   26015.69495424  .00015900  00000+0  54803-3 0  9990
2 66879  53.1614 270.0915 0001161  76.7150 283.3981 15.30186043  7739
STARLINK-35844          
1 66880U 25283C   26015.70023415  .00013402  00000+0  46405-3 0  9995
2 66880  53.1598 270.1244 0001824  90.1232 269.9978 15.30181476  7736
STARLINK-35860          
1 66881U 25283D   26015.68862801  .00021210  00000+0  72591-3 0  9994
2 66881  53.1616 270.0516 0001834  90.0721 270.0490 15.30212075  7734
STARLINK-35912          
1 66882U 25283E   26015.09035471  .00004467  00000+0  16282-3 0  9995
2 66882  53.1602 273.4306 0001376 104.4554 255.6599 15.30206421  7635
STARLINK-35947          
1 66883U 25283F   26015.80670389 -.00159734  00000+0 -54522-2 0  9996
2 66883  53.1586 270.0781 0005941  24.1726 335.9553 15.30440647  7764
STARLINK-36057          
1 66884U 25283G   26015.73505803  .00012333  00000+0  42772-3 0  9993
2 66884  53.1588 270.3416 0001718 101.9804 258.1390 15.30207531  7739
STARLINK-35954          
1 66885U 25283H   26015.15039303  .00006542  00000+0  23271-3 0  9995
2 66885  53.1575 273.0962 0001109  82.2662 277.8465 15.30212508  7640
STARLINK-35900          
1 66886U 25283J   26015.13984323  .00017356  00000+0  59665-3 0  9996
2 66886  53.1584 273.0273 0001781  46.3463 313.7685 15.30205950  7649
STARLINK-35925          
1 66887U 25283K   26015.98576173  .00010189  00000+0  35555-3 0  9999
2 66887  53.1579 269.0632 0000913 106.1773 253.9328 15.30209955  7775
